#dP2021  7 18  6  0  0.00000000      96 __u+U ITR00 EXT  IAC
## 2167  21600.00000000   900.00000000 59413 0.2500000000000
+  117   C06C07C08C09C10C11C12C13C14C16C19C20C21C22C23C24C25
+        C26C27C28C29C30C32C33C34C35C36C37C38C39C40C41C42C43
+        C44C45C46E01E02E03E04E05E07E08E09E11E12E13E14E15E18
+        E19E21E24E25E26E27E30E31E33E36G01G02G03G04G05G06G07
+        G08G09G10G11G12G13G14G15G16G17G18G19G20G21G22G23G24
+        G25G26G27G28G29G30G31G32J01J02J03R01R02R03R04R05R07
+        R08R09R11R12R13R14R15R16R17R18R19R20R21R22R24  0  0
++        11  8 10 11  9 10  8  8  8 11  8  9  9  8  9  9  9
++        10  8 10  8  9 10  8  9  8  9  9 10 10  9 10  9  9
++         9  9  8  8  8  8  8  9  8  8  9  9  8  9  8  8  9
++         8  8  8  8  9  8  8  8  9  9  8  9  9  8  8  8  7
++         8  8  9  9  8  8  8  8  8  8  8  8  9  8  9  8  8
++         8  8  8  9  8  9  8  8 10  9 10  9 10  9  8  8  9
++         9  8  9 10  8  9  8  8  9  8  9  8  9  8  8  0  0
%c M  cc GPS ccc cccc cccc cccc cccc ccccc ccccc ccccc ccccc
%c cc cc ccc ccc cccc cccc cccc cccc ccccc ccccc ccccc ccccc
%f  0.0000000  0.000000000  0.00000000000  0.000000000000000
%f  0.0000000  0.000000000  0.00000000000  0.000000000000000
%i    0    0    0    0      0      0      0      0         0
%i    0    0    0    0      0      0      0      0         0
/* IAC                                ULTRA-RAPID PREDICTION
/* S/V CLOCKS ARE ALIGNED TO GNSS TIME                      
/* G:C1WC2W R:C1PC2P E:C1XC5X C:C2IC6I J:C1CC2S             
/* PCV:IGS14_2163 OL/AL:FES2004  NONE     YN ORB:CoN CLK:CoN
*  2021 07 19  1  0  0.00000000
PC06  -6786.265897  26342.131839 -31615.246489    642.297127
PC07 -20895.150152  27556.916911  24032.934385    106.541494
PC08 -15168.626289  38930.852241   7077.932486   -906.420266
PC09   6455.827361  33853.970443 -23686.571192    363.523715
PC10  -7894.118004  28499.501163  30136.724893    -17.349753
PC11   -693.672405 -20841.313294 -18466.988351    465.761440
PC12  14054.142961  -6727.804842 -23125.752975    807.452332
PC13  -7033.279472  41349.321243  -5424.868992    341.681711
PC14   9109.803722 -16141.318633  20902.883470    794.553305
PC16  -4286.855030  27530.717489 -31456.797639   -910.261059
PC19   2391.007213  15655.519840 -22951.909177    914.168137
PC20 -17219.391587  14342.244262 -16593.807620   -841.280539
PC21  27584.540365  -4320.011354    -50.013134   -936.052884
PC22  21285.984256   7976.608673 -16207.575068   -948.420093
PC23 -11669.927983 -12939.400874 -21784.933303   -968.239097
PC24  14310.426772 -22955.854743   6814.506661   -946.039425
PC25    710.171773 -25487.011213 -11321.585073   -883.767712
PC26  17988.243932  -8394.228496  19597.750168    876.828600
PC27 -19349.897038  -2417.067026  19943.602607    566.615216
PC28 -19839.453091 -18668.365750   6029.675526    -48.974296
PC29   9585.454512  23598.572359  11390.569852    421.378456
PC30  -7454.011489  15075.627061  22256.054284    474.528042
PC32 -27536.418356   4479.782532    119.087524   -925.163769
PC33  -2342.205013 -15708.062392  22950.803947   -944.608747
PC34   6830.791232 -15714.946175 -22043.001123   -624.969096
PC35  20380.237909  18177.178297  -5677.416469   -180.766301
PC36  -1569.484624  25595.307135  11036.192507   -734.096316
PC37 -18110.969140   7037.336772 -20011.577622   -864.251256
PC38 -14035.267514  39478.632603   5366.868002    162.648006
PC39  -1878.319874  28068.816900 -31344.931489     32.476362
PC40 -15531.404073  23512.844417  31345.195252    181.860471
PC41 -21026.089146  -8176.462430  16473.578589   -962.291053
PC42  17934.894312 -14172.818758  16062.789982   -921.026741
PC43  -8972.754622 -23642.674424 -11833.451694   -827.673953
PC44  19577.175543   1828.493397 -19804.438193    296.451463
PC45  11682.020094  12737.064664  21924.574966    497.172807
PC46 -13718.860028  23613.138498  -5809.633352    172.642778
PE01 -24219.031911  16120.053482  -5448.870847  -1153.032863
PE02  24188.770741 -16197.986952   5333.407743    233.863241
PE03  22803.126331  -5678.555771  18010.740658   -454.167937
PE04  -4236.284903  16591.936910 -24135.399115   -816.279827
PE05  28257.510641   8743.677657   1205.291765   -264.123719
PE07 -17174.754643 -17916.768760  16128.946979   -563.317056
PE08   3745.462660 -16593.064701  24227.757236   5968.146883
PE09  17488.564290  17699.190736 -16040.902728   5595.783948
PE11  10492.588971  26619.703082  -7573.717394   5700.777440
PE12  -2376.564062  27012.766185  11842.760052   5104.206400
PE13 -10303.875902 -26815.869571   7136.978851    419.191903
PE14 -21951.792622 -12296.672189   1790.448475  -1505.052799
PE15   2235.892218 -27033.160230 -11850.811170    802.746234
PE18  27873.052675   4085.260952 -14547.871758  -1649.636972
PE19 -24239.622498   3912.086000 -16522.953620    330.301737
PE21 -21508.332937    546.892367 -20323.875208   -677.020147
PE24   5350.138571  16721.170937  23827.784761  -1015.355308
PE25  21406.736495   -344.351434  20451.665326   -540.438550
PE26 -16913.864625  -9884.229867  22184.000136   1563.315647
PE27  -6282.673096 -16057.348250 -24050.656706    -78.684590
PE30  13492.267754 -23057.667731 -12740.206954   2772.912187
PE31 -12512.875825  23108.997086  13632.398632   -483.411013
PE33 -13430.046101  11331.729423  23816.072515   -467.498094
PE36  16751.086077  10807.318055 -21884.057807   -236.326637
PG01 -13182.179781  10929.241363  19931.214307    624.056080
PG02  13310.341226  14417.934002 -17220.254068   -620.531299
PG03 -23499.715346  11939.800916   2618.491404   -224.915662
PG04 -18575.104018   3980.605738 -18580.762972   -202.620250
PG05  22725.047535  -3272.208583 -13671.613798    -48.340438
PG06   7061.574070  23436.473317 -10176.178751     42.146620
PG07  -6903.224457  23228.252710  -9910.019816    205.566594
PG08 -24001.177498  -4301.737157  10880.846867    -29.299880
PG09  -8146.346869  13101.248673 -21682.924615   -355.983381
PG10   1830.131684 -17222.303575  20173.624459   -164.807757
PG11  11916.116713  15522.042850 -17976.623535     18.774821
PG12  24297.950240 -10075.965882   2856.556456    -70.550104
PG13  22821.298851  12764.198011   4943.949868    159.518044
PG14  -2232.205469  17264.661056  20043.699790     44.103657
PG15  24389.551005   1611.409146  10432.679716   -134.570648
PG16 -19802.440804  -3877.569789 -17749.876105   -359.350550
PG17   6041.922497  18520.540747  18478.345665    475.907073
PG18   5540.148453 -24730.797338  -7823.752610    339.972883
PG19  14423.151405  19271.975535  11099.235873     28.117593
PG20  15670.678292   6475.192003 -20416.591251    520.106649
PG21 -15478.031867   2102.296434  22171.039440    132.088745
PG22 -23114.817393   7229.457985  10851.539955   -560.153818
PG23  13218.010659 -18996.422051  12956.776591     82.711485
PG24  14951.644405  -5877.403060  20851.001404    179.236408
PG25  18741.215179 -17233.679196  -7317.302126    175.915172
PG26 -11005.829450 -11396.621438 -21393.406819    112.231239
PG27 -23682.570586 -12407.100197   1001.091014   -165.012338
PG28   3720.431199  14979.041498  22180.138154    535.449456
PG29  10295.546986 -10780.279175 -22035.274183   -382.396759
PG30   1102.344997  26348.479989   1828.015127   -452.366406
PG31  -8215.321011 -22047.305545 -11937.105313   -129.401527
PG32 -10010.245736 -18593.960807  16328.930412     13.304886
PJ01 -32570.669813  15620.359816 -17067.225999   -418.740377
PJ02 -28896.090758  30602.153585   2389.646762     -0.881061
PJ03 -24437.325464  24312.043118  29372.908462     -0.240307
PR01  18636.847227  -7420.902937  15768.662985     82.510451
PR02  -2428.776126 -10926.403165  22966.768413    486.576716
PR03 -19536.759442  -7553.979430  14638.181220     39.761635
PR04 -25448.082752    -13.161186  -1767.736237     96.397821
PR05 -17288.620975   7447.337458 -17212.752140     75.585230
PR07  19972.800439   7292.686306 -14020.138428    -41.982741
PR08  25425.461947   -129.720217   1968.912785    -60.018439
PR09  -4996.207696  21142.208853  13326.945370      3.622976
PR11  15005.237661  -7416.665579  19268.943260     44.593452
PR12  14744.223452 -20417.114171   4035.898814    246.449935
PR13   5682.498395 -21371.951117 -12727.220106    -57.906978
PR14  -7111.287853  -9333.028121 -22633.929927     66.644067
PR15 -15324.004818   7696.057093 -18856.824312    102.617530
PR16 -13934.514858  21255.073299  -2870.236276    -18.136705
PR17 -14330.218309 -19710.957923   7463.812665    442.262845
PR18 -13805.665527  -6555.530738  20444.559456     83.915538
PR19  -6737.104223   9234.762332  22796.505483   -152.037376
PR20   5729.116426  22426.045242  10678.646402    -52.707187
PR21  14502.572619  19125.856493  -8688.289289   -224.908730
PR22  13403.925083   5516.314386 -20985.535045   -123.360216
PR24  -6368.562373 -22611.098006  -9911.122035     51.014326
EOF
